[
    {
        "Altitude(m)": 605470.7962480318,
        "Argument of Periapsis(deg)": 0.0,
        "Eccentricity": 0.0,
        "Inclination(deg)": 60.0,
        "Latitude(deg)": 27.988226439830324,
        "Longitude(deg)": 72.26291808218323,
        "Mean Anomaly(deg)": 147.2727,
        "RAAN(deg)": 10.0,
        "Satellite Name": "Test1 53",
        "Satellite Number": 53,
        "Semi-Major Axis(m)": 6980739.136638005,
        "Time(s)": 0
    },
    {
        "Altitude(m)": 605395.834157601,
        "Argument of Periapsis(deg)": 0.00010418945913296404,
        "Eccentricity": 0.0,
        "Inclination(deg)": 60.0,
        "Latitude(deg)": 27.47391747705675,
        "Longitude(deg)": 72.61610654989066,
        "Mean Anomaly(deg)": 147.8928061454618,
        "RAAN(deg)": 9.999579950860259,
        "Satellite Name": "Test1 53",
        "Satellite Number": 53,
        "Semi-Major Axis(m)": 6980739.136638005,
        "Time(s)": 10
    },
    {
        "Altitude(m)": 605322.6747198965,
        "Argument of Periapsis(deg)": 0.0002083789182659281,
        "Eccentricity": 0.0,
        "Inclination(deg)": 60.0,
        "Latitude(deg)": 26.95846271456983,
        "Longitude(deg)": 72.96564680278856,
        "Mean Anomaly(deg)": 148.51291229092362,
        "RAAN(deg)": 9.999159901720514,
        "Satellite Name": "Test1 53",
        "Satellite Number": 53,
        "Semi-Major Axis(m)": 6980739.136638005,
        "Time(s)": 20
    },
    {
        "Altitude(m)": 605251.3736094306,
        "Argument of Periapsis(deg)": 0.00031256837739889213,
        "Eccentricity": 0.0,
        "Inclination(deg)": 60.0,
        "Latitude(deg)": 26.441896654866596,
        "Longitude(deg)": 73.31164349084966,
        "Mean Anomaly(deg)": 149.13301843638547,
        "RAAN(deg)": 9.998739852580773,
        "Satellite Name": "Test1 53",
        "Satellite Number": 53,
        "Semi-Major Axis(m)": 6980739.136638005,
        "Time(s)": 30
    },
    {
        "Altitude(m)": 605181.9857727902,
        "Argument of Periapsis(deg)": 0.0004167578365318562,
        "Eccentricity": 0.0,
        "Inclination(deg)": 60.0,
        "Latitude(deg)": 25.924252946146606,
        "Longitude(deg)": 73.65419953156403,
        "Mean Anomaly(deg)": 149.75312458184732,
        "RAAN(deg)": 9.99831980344103,
        "Satellite Name": "Test1 53",
        "Satellite Number": 53,
        "Semi-Major Axis(m)": 6980739.136638005,
        "Time(s)": 40
    },
    {
        "Altitude(m)": 605114.5653996761,
        "Argument of Periapsis(deg)": 0.0005209472956648203,
        "Eccentricity": 0.0,
        "Inclination(deg)": 60.0,
        "Latitude(deg)": 25.40556441486545,
        "Longitude(deg)": 73.99341516606091,
        "Mean Anomaly(deg)": 150.37323072730916,
        "RAAN(deg)": 9.997899754301287,
        "Satellite Name": "Test1 53",
        "Satellite Number": 53,
        "Semi-Major Axis(m)": 6980739.136638005,
        "Time(s)": 50
    },
    {
        "Altitude(m)": 605049.1658942862,
        "Argument of Periapsis(deg)": 0.0006251367547977843,
        "Eccentricity": 0.0,
        "Inclination(deg)": 60.0,
        "Latitude(deg)": 24.885863097172653,
        "Longitude(deg)": 74.32938852730662,
        "Mean Anomaly(deg)": 150.99333687277098,
        "RAAN(deg)": 9.997479705161545,
        "Satellite Name": "Test1 53",
        "Satellite Number": 53,
        "Semi-Major Axis(m)": 6980739.136638005,
        "Time(s)": 60
    },
    {
        "Altitude(m)": 604985.8398470373,
        "Argument of Periapsis(deg)": 0.0007293262139307483,
        "Eccentricity": 0.0,
        "Inclination(deg)": 60.0,
        "Latitude(deg)": 24.365180269272948,
        "Longitude(deg)": 74.66221620744508,
        "Mean Anomaly(deg)": 151.6134430182328,
        "RAAN(deg)": 9.9970596560218,
        "Satellite Name": "Test1 53",
        "Satellite Number": 53,
        "Semi-Major Axis(m)": 6980739.136638005,
        "Time(s)": 70
    },
    {
        "Altitude(m)": 604924.6390066551,
        "Argument of Periapsis(deg)": 0.0008335156730637124,
        "Eccentricity": 0.0,
        "Inclination(deg)": 60.0,
        "Latitude(deg)": 23.84354647674665,
        "Longitude(deg)": 74.99199231135914,
        "Mean Anomaly(deg)": 152.23354916369462,
        "RAAN(deg)": 9.99663960688206,
        "Satellite Name": "Test1 53",
        "Satellite Number": 53,
        "Semi-Major Axis(m)": 6980739.136638005,
        "Time(s)": 80
    },
    {
        "Altitude(m)": 604865.6142526065,
        "Argument of Periapsis(deg)": 0.0009377051321966765,
        "Eccentricity": 0.0,
        "Inclination(deg)": 60.0,
        "Latitude(deg)": 23.32099156287038,
        "Longitude(deg)": 75.31880902216048,
        "Mean Anomaly(deg)": 152.85365530915647,
        "RAAN(deg)": 9.996219557742315,
        "Satellite Name": "Test1 53",
        "Satellite Number": 53,
        "Semi-Major Axis(m)": 6980739.136638005,
        "Time(s)": 90
    },
    {
        "Altitude(m)": 604808.8155679523,
        "Argument of Periapsis(deg)": 0.0010418945913296407,
        "Eccentricity": 0.0,
        "Inclination(deg)": 60.0,
        "Latitude(deg)": 22.79754469597194,
        "Longitude(deg)": 75.6427571657048,
        "Mean Anomaly(deg)": 153.47376145461828,
        "RAAN(deg)": 9.995799508602573,
        "Satellite Name": "Test1 53",
        "Satellite Number": 53,
        "Semi-Major Axis(m)": 6980739.136638005,
        "Time(s)": 100
    },
    {
        "Altitude(m)": 604754.292012564,
        "Argument of Periapsis(deg)": 0.0011460840504626045,
        "Eccentricity": 0.0,
        "Inclination(deg)": 60.0,
        "Latitude(deg)": 22.2732343958558,
        "Longitude(deg)": 75.96392526123105,
        "Mean Anomaly(deg)": 154.09386760008013,
        "RAAN(deg)": 9.99537945946283,
        "Satellite Name": "Test1 53",
        "Satellite Number": 53,
        "Semi-Major Axis(m)": 6980739.136638005,
        "Time(s)": 110
    },
    {
        "Altitude(m)": 604702.0916967937,
        "Argument of Periapsis(deg)": 0.0012502735095955685,
        "Eccentricity": 0.0,
        "Inclination(deg)": 60.0,
        "Latitude(deg)": 21.748088559335322,
        "Longitude(deg)": 76.28240008385829,
        "Mean Anomaly(deg)": 154.71397374554195,
        "RAAN(deg)": 9.994959410323089,
        "Satellite Name": "Test1 53",
        "Satellite Number": 53,
        "Semi-Major Axis(m)": 6980739.136638005,
        "Time(s)": 120
    },
    {
        "Altitude(m)": 604652.2617555511,
        "Argument of Periapsis(deg)": 0.0013544629687285324,
        "Eccentricity": 0.0,
        "Inclination(deg)": 60.0,
        "Latitude(deg)": 21.222134484904963,
        "Longitude(deg)": 76.59826722605271,
        "Mean Anomaly(deg)": 155.33407989100377,
        "RAAN(deg)": 9.994539361183346,
        "Satellite Name": "Test1 53",
        "Satellite Number": 53,
        "Semi-Major Axis(m)": 6980739.136638005,
        "Time(s)": 130
    },
    {
        "Altitude(m)": 604604.848322815,
        "Argument of Periapsis(deg)": 0.0014586524278614966,
        "Eccentricity": 0.0,
        "Inclination(deg)": 60.0,
        "Latitude(deg)": 20.69539889658573,
        "Longitude(deg)": 76.9116101451843,
        "Mean Anomaly(deg)": 155.95418603646564,
        "RAAN(deg)": 9.994119312043603,
        "Satellite Name": "Test1 53",
        "Satellite Number": 53,
        "Semi-Major Axis(m)": 6980739.136638005,
        "Time(s)": 140
    },
    {
        "Altitude(m)": 604559.8965066208,
        "Argument of Periapsis(deg)": 0.0015628418869944607,
        "Eccentricity": 0.0,
        "Inclination(deg)": 60.0,
        "Latitude(deg)": 20.167907966976966,
        "Longitude(deg)": 77.22251072292077,
        "Mean Anomaly(deg)": 156.57429218192746,
        "RAAN(deg)": 9.99369926290386,
        "Satellite Name": "Test1 53",
        "Satellite Number": 53,
        "Semi-Major Axis(m)": 6980739.136638005,
        "Time(s)": 150
    },
    {
        "Altitude(m)": 604517.4503645163,
        "Argument of Periapsis(deg)": 0.0016670313461274247,
        "Eccentricity": 0.0,
        "Inclination(deg)": 60.0,
        "Latitude(deg)": 19.63968733954591,
        "Longitude(deg)": 77.53104982358587,
        "Mean Anomaly(deg)": 157.19439832738928,
        "RAAN(deg)": 9.993279213764117,
        "Satellite Name": "Test1 53",
        "Satellite Number": 53,
        "Semi-Major Axis(m)": 6980739.136638005,
        "Time(s)": 160
    },
    {
        "Altitude(m)": 604477.5528794841,
        "Argument of Periapsis(deg)": 0.0017712208052603888,
        "Eccentricity": 0.0,
        "Inclination(deg)": 60.0,
        "Latitude(deg)": 19.110762150185124,
        "Longitude(deg)": 77.83730633861441,
        "Mean Anomaly(deg)": 157.81450447285113,
        "RAAN(deg)": 9.992859164624374,
        "Satellite Name": "Test1 53",
        "Satellite Number": 53,
        "Semi-Major Axis(m)": 6980739.136638005,
        "Time(s)": 170
    },
    {
        "Altitude(m)": 604440.2459363685,
        "Argument of Periapsis(deg)": 0.001875410264393353,
        "Eccentricity": 0.0,
        "Inclination(deg)": 60.0,
        "Latitude(deg)": 18.581157048068725,
        "Longitude(deg)": 78.14135774286183,
        "Mean Anomaly(deg)": 158.43461061831295,
        "RAAN(deg)": 9.992439115484633,
        "Satellite Name": "Test1 53",
        "Satellite Number": 53,
        "Semi-Major Axis(m)": 6980739.136638005,
        "Time(s)": 180
    },
    {
        "Altitude(m)": 604405.5702988354,
        "Argument of Periapsis(deg)": 0.0019795997235263173,
        "Eccentricity": 0.0,
        "Inclination(deg)": 60.0,
        "Latitude(deg)": 18.050896215835834,
        "Longitude(deg)": 78.44328064990715,
        "Mean Anomaly(deg)": 159.05471676377476,
        "RAAN(deg)": 9.992019066344888,
        "Satellite Name": "Test1 53",
        "Satellite Number": 53,
        "Semi-Major Axis(m)": 6980739.136638005,
        "Time(s)": 190
    }
]